EUTELSAT 7A             
1 28187U 04008A   26001.79262079  .00000107  00000+0  00000+0 0  9995
2 28187   5.4080  74.0184 0001405 226.8814 306.6708  1.00270134 79688
EUTELSAT 174A           
1 28924U 05052A   26001.78334740  .00000015  00000+0  00000+0 0  9996
2 28924   3.7974  78.6126 0006340 204.9668 273.8240  1.00271407 50660
EUTELSAT HOTBIRD 13B    
1 29270U 06032A   26001.82676766  .00000164  00000+0  00000+0 0  9997
2 29270   1.2321  84.1830 0003606 200.5731 147.4285  1.00271793 45637
EUTELSAT HOTBIRD 13C    
1 33459U 08065A   26001.81030091 -.00000275  00000+0  00000+0 0  9997
2 33459   2.5226  81.1929 0003743 201.2696  60.4006  1.00269709 45678
EUTELSAT 36B            
1 36101U 09065A   26001.83023435  .00000122  00000+0  00000+0 0  9991
2 36101   0.0757  56.6353 0006164 225.0814 169.1649  1.00274356 59041
EUTELSAT KA-SAT 9A      
1 37258U 10069A   26001.82200096  .00000072  00000+0  00000+0 0  9994
2 37258   0.0504 339.4111 0001345 202.0501 224.9075  1.00274478 42335
EUTELSAT 7 WEST A       
1 37816U 11051A   26001.81879429 -.00000050  00000+0  00000+0 0  9994
2 37816   0.0629   9.8964 0005131 228.1746 150.8460  1.00271074 52205
EUTELSAT 16A            
1 37836U 11057A   26001.60939786  .00000115  00000+0  00000+0 0  9993
2 37836   0.0557   8.0955 0005782 275.9742  52.5935  1.00274151  5657
